{"tleArray": [
  { "line0": "FENGYUN 1C DEB",
    "line1": "1 31825U 99025CHP 19048.93024123 +.00000121 +00000-0 +72514-4 0  9997",
    "line2": "2 31825 098.7393 085.3691 0176827 302.0480 056.3624 14.15906811603483"
  },
  { "line0": "FENGYUN 1C DEB",
    "line1": "1 31826U 99025CHQ 19048.32098558  .00000138  00000-0  85701-4 0  9994",
    "line2": "2 31826  98.7105  84.4151 0132080 138.5110 281.6668 14.14809197605640"
  },
  { "line0": "FENGYUN 1C DEB",
    "line1": "1 31827U 99025CHR 19045.16652538  .00000742  00000-0  58257-3 0  9994",
    "line2": "2 31827  97.6652  17.8832 0134521  44.1322 317.0482 13.90109409593175"
  },
  { "line0": "FENGYUN 1C DEB",
    "line1": "1 31828U 99025CHS 19047.79676765  .00002086  00000-0  62238-3 0  9991",
    "line2": "2 31828  99.2934 276.2271 0182691 101.6313 260.5437 14.34994563612991"
  },
  { "line0": "FENGYUN 1C DEB",
    "line1": "1 31829U 99025CHT 19048.93620434  .00000176  00000-0  16690-3 0  9990",
    "line2": "2 31829  99.0372 304.1643 0173936  79.5781 342.5169 13.86283520596314"
  },
  { "line0": "FENGYUN 1C DEB",
    "line1": "1 31830U 99025CHU 19048.96587067 +.00000499 +00000-0 +49655-3 0  9994",
    "line2": "2 31830 099.0408 225.1308 0203086 072.2925 083.0682 13.73810715584802"
  },
  { "line0": "FENGYUN 1C DEB",
    "line1": "1 31831U 99025CHV 19049.01697318  .00000682  00000-0  48139-3 0  9993",
    "line2": "2 31831  97.8893 138.5639 0142414  59.1500 302.3587 13.95802892595175"
  },
  { "line0": "FENGYUN 1C DEB",
    "line1": "1 31833U 99025CHX 19028.16648940 +.00000603 +00000-0 +75329-3 0  9999",
    "line2": "2 31833 098.2220 008.9764 0333027 338.6489 020.1023 13.46716162573040"
  },
  { "line0": "FENGYUN 1C DEB",
    "line1": "1 31834U 99025CHY 19046.85659773  .00000249  00000-0  17321-3 0  9996",
    "line2": "2 31834  98.3221  77.8871 0171149 264.6327  93.5294 13.99959677606152"
  },
  { "line0": "FENGYUN 1C DEB",
    "line1": "1 31836U 99025CJA 19046.69341749  .00000446  00000-0  33760-3 0  9995",
    "line2": "2 31836  98.6488 131.8436 0136650 232.8399 126.0220 13.94594731596301"
  },
  { "line0": "FENGYUN 1C DEB",
    "line1": "1 31837U 99025CJB 19047.36750996 +.00000363 +00000-0 +84261-4 0  9990",
    "line2": "2 31837 098.3887 099.3651 0143803 240.4422 118.2377 14.55307244619670"
  },
  { "line0": "FENGYUN 1C DEB",
    "line1": "1 31838U 99025CJC 19049.33776714  .00000266  00000-0  16073-3 0  9993",
    "line2": "2 31838  98.9641  84.1209 0041591 357.8215  66.1231 14.14566288607419"
  },
  { "line0": "FENGYUN 1C DEB",
    "line1": "1 31839U 99025CJD 19044.41282298  .00001997  00000-0  78131-3 0  9992",
    "line2": "2 31839  98.3114 256.0909 0390696   2.3331 357.9542 13.96014759589066"
  },
  { "line0": "FENGYUN 1C DEB",
    "line1": "1 31840U 99025CJE 19021.30176574  .00000048  00000-0  66975-4 0  9996",
    "line2": "2 31840  99.0991  54.0785 0096866 111.9418 249.3717 13.93009813600987"
  },
  { "line0": "FENGYUN 1C DEB",
    "line1": "1 31841U 99025CJF 19047.17585971  .00000782  00000-0  41315-3 0  9990",
    "line2": "2 31841  98.4544  28.5549 0355933  26.1107  32.9871 13.88371473593328"
  },
  { "line0": "FENGYUN 1C DEB",
    "line1": "1 31842U 99025CJG 19048.02236906 +.00002791 +00000-0 +10616-3 0  9999",
    "line2": "2 31842 098.1432 132.1893 0185313 110.9627 251.1542 15.13201499633042"
  },
  { "line0": "FENGYUN 1C DEB",
    "line1": "1 31843U 99025CJH 19047.96752366 +.00000347 +00000-0 +28274-3 0  9999",
    "line2": "2 31843 099.2209 235.9778 0721106 227.9929 125.7600 13.13030567318732"
  },
  { "line0": "FENGYUN 1C DEB",
    "line1": "1 31844U 99025CJJ 19047.67488498 +.00000182 +00000-0 +12467-3 0  9994",
    "line2": "2 31844 100.2782 352.0548 0114594 253.7439 105.1096 14.11230433601366"
  },
  { "line0": "FENGYUN 1C DEB",
    "line1": "1 31847U 99025CJM 19034.35601207  .00000442  00000-0  31451-3 0  9996",
    "line2": "2 31847  99.1876  73.3100 0097281 353.0280   6.9525 14.00703894600882"
  },
  { "line0": "FENGYUN 1C DEB",
    "line1": "1 31848U 99025CJN 19049.06957387  .00000667  00000-0  10257-3 0  9994",
    "line2": "2 31848  96.7416 346.4838 0140048 106.7231 254.9401 14.69483985625254"
  },
  { "line0": "FENGYUN 1C DEB",
    "line1": "1 31849U 99025CJP 19049.49483764  .00010673  00000-0  50674-3 0  9990",
    "line2": "2 31849  97.8374 307.1258 0063501 136.4009 224.2267 15.17627282626874"
  },
  { "line0": "FENGYUN 1C DEB",
    "line1": "1 31850U 99025CJQ 19048.58635476  .00000461  00000-0  87141-4 0  9994",
    "line2": "2 31850  98.4537 334.8714 0295156 261.5635  95.2004 14.45588710612597"
  },
  { "line0": "FENGYUN 1C DEB",
    "line1": "1 31851U 99025CJR 19038.85168680  .00000757  00000-0  74214-3 0  9996",
    "line2": "2 31851  98.7864  51.1292 0225650 108.0170 254.5708 13.70996289583022"
  },
  { "line0": "FENGYUN 1C DEB",
    "line1": "1 31852U 99025CJS 19048.76409923 +.00001632 +00000-0 +30086-3 0  9998",
    "line2": "2 31852 098.7712 245.7896 0452201 268.3993 086.5356 14.17541634592825"
  },
  { "line0": "FENGYUN 1C DEB",
    "line1": "1 31854U 99025CJU 19049.29371663  .00000101  00000-0  96128-4 0  9998",
    "line2": "2 31854  98.9835  85.6195 0081195 217.0260 142.5285 13.99948473603723"
  },
  { "line0": "FENGYUN 1C DEB",
    "line1": "1 31855U 99025CJV 19042.06821581 +.00001924 +00000-0 +12090-3 0  9995",
    "line2": "2 31855 096.7077 340.8294 0215488 084.6020 277.9684 14.92901835627244"
  },
  { "line0": "FENGYUN 1C DEB",
    "line1": "1 31857U 99025CJX 19048.33789917 +.00000432 +00000-0 +47624-3 0  9993",
    "line2": "2 31857 096.1869 243.7176 0332360 307.4397 049.6932 13.53486504278767"
  },
  { "line0": "FENGYUN 1C DEB",
    "line1": "1 31861U 99025CKB 19049.42916881 -.00000082  00000-0 -31121-4 0  9990",
    "line2": "2 31861 102.3275 112.8716 0534744 134.2299 304.6472 13.19589713568882"
  },
  { "line0": "DIRECTV 10",
    "line1": "1 31862U 07032A   19049.39092567 -.00000119  00000-0  00000+0 0  9997",
    "line2": "2 31862   0.0541 284.1674 0000341   0.8241 260.9183  1.00271204 42571"
  },
  { "line0": "BREEZE-M DEB (TANK)",
    "line1": "1 31863U 07032B   19048.63665166 +.00000035 +00000-0 +12680-3 0  9992",
    "line2": "2 31863 045.9157 153.1583 4961758 202.4653 124.9237 05.52211797233209"
  },
  { "line0": "BREEZE-M R/B",
    "line1": "1 31864U 07032C   19048.80152480 +.00000175 +00000-0 +00000-0 0  9997",
    "line2": "2 31864 021.6653 032.2419 5769021 039.3530 218.5414 02.01208559085269"
  },
  { "line0": "CBERS 1 DEB",
    "line1": "1 31870U 99057PV  19047.95694543 +.00005974 +00000-0 +49390-3 0  9998",
    "line2": "2 31870 098.2265 101.2088 0007437 150.7438 209.4202 14.99320780625388"
  },
  { "line0": "CBERS 1 DEB",
    "line1": "1 31871U 99057PW  19046.35562992  .00005183  00000-0  47357-3 0  9997",
    "line2": "2 31871  98.2303  97.3791 0007945 138.2764 221.9063 14.95480783625172"
  },
  { "line0": "CBERS 1 DEB",
    "line1": "1 31872U 99057PX  19048.85780677  .00002552  00000-0  34605-3 0  9996",
    "line2": "2 31872  98.2818  67.7213 0004908 249.0519 111.0167 14.79828112622961"
  },
  { "line0": "CBERS 1 DEB",
    "line1": "1 31873U 99057PY  19049.21759646  .00001108  00000-0  25299-3 0  9995",
    "line2": "2 31873  98.4076  30.7028 0005973  57.1057  10.4443 14.57747065618633"
  },
  { "line0": "CBERS 1 DEB",
    "line1": "1 31876U 99057QB  19047.74455570  .00001454  00000-0  30067-3 0  9996",
    "line2": "2 31876  98.3678  22.6774 0012835  65.4702 294.7835 14.61824582625506"
  },
  { "line0": "FENGYUN 1C DEB",
    "line1": "1 31877U 99025CKC 19049.51911283  .00000503  00000-0  76206-4 0  9997",
    "line2": "2 31877  99.0060 151.0500 0183276 144.8436 216.5023 14.68877683623065"
  },
  { "line0": "FENGYUN 1C DEB",
    "line1": "1 31878U 99025CKD 19049.48022482  .00000259  00000-0  63795-4 0  9995",
    "line2": "2 31878  99.4595 293.8401 0139306 203.8101 155.6608 14.56983642618053"
  },
  { "line0": "FENGYUN 1C DEB",
    "line1": "1 31879U 99025CKE 19047.88537036 +.00000102 +00000-0 +43014-4 0  9993",
    "line2": "2 31879 099.7151 287.7407 0227937 004.2501 356.0547 14.36320690611337"
  },
  { "line0": "FENGYUN 1C DEB",
    "line1": "1 31880U 99025CKF 19044.67606899 +.00000066 +00000-0 +95665-4 0  9991",
    "line2": "2 31880 099.9904 004.8269 0134142 192.0804 167.7122 13.85068679589124"
  },
  { "line0": "FENGYUN 1C DEB",
    "line1": "1 31881U 99025CKG 19049.01806519  .00004485  00000-0  36498-3 0  9993",
    "line2": "2 31881  99.0244 127.4134 0050782 295.4560  64.1410 14.99197529622457"
  },
  { "line0": "FENGYUN 1C DEB",
    "line1": "1 31882U 99025CKH 19032.99431860  .00000387  00000-0  25396-3 0  9998",
    "line2": "2 31882  98.8929 314.3343 0040293  73.5142 287.0449 14.07483756599316"
  },
  { "line0": "FENGYUN 1C DEB",
    "line1": "1 31883U 99025CKJ 19048.37759916 +.00000248 +00000-0 +63020-4 0  9996",
    "line2": "2 31883 099.0959 073.7220 0154527 057.0267 304.5675 14.53862207617033"
  },
  { "line0": "FENGYUN 1C DEB",
    "line1": "1 31887U 99025CKN 19049.53747868  .00000229  00000-0  10058-3 0  9993",
    "line2": "2 31887  99.5254 147.9121 0034623 358.3060  69.6145 14.33872707608592"
  },
  { "line0": "FENGYUN 1C DEB",
    "line1": "1 31888U 99025CKP 19048.88942992  .00000635  00000-0  34582-3 0  9995",
    "line2": "2 31888  99.2041 200.6268 0028330  84.4025  69.1186 14.15783649604928"
  },
  { "line0": "FENGYUN 1C DEB",
    "line1": "1 31890U 99025CKR 19049.29462984  .00000128  00000-0  96527-4 0  9997",
    "line2": "2 31890  98.9464  80.0587 0074327  68.4346 292.4724 14.09094856602683"
  },
  { "line0": "FENGYUN 1C DEB",
    "line1": "1 31891U 99025CKS 19048.87304641  .00000184  00000-0  23879-3 0  9997",
    "line2": "2 31891  99.6419  81.5880 0229723  85.7764 276.9593 13.63813450584646"
  },
  { "line0": "FENGYUN 1C DEB",
    "line1": "1 31892U 99025CKT 19042.68591569  .00000164  00000-0  64346-4 0  9991",
    "line2": "2 31892  99.2608   2.5630 0227273 323.1151  35.4580 14.31068064606958"
  }
]}